ONEWEB-0446             
1 51640U 22012U   26063.94270404 -.00000197  00000+0 -59925-3 0  9991
2 51640  87.8770  57.0434 0001975  84.9052 275.2300 13.10376630195675
ONEWEB-0448             
1 51641U 22012V   26063.71862006  .00000101  00000+0  25337-3 0  9995
2 51641  87.8769  57.0864 0001795  87.9980 272.1353 13.10376609195618
ONEWEB-0449             
1 51642U 22012W   26064.18174693  .00000287  00000+0  78597-3 0  9997
2 51642  87.8776  56.9718 0001566  73.5789 286.5511 13.10376186195689
ONEWEB-0451             
1 51643U 22012X   26064.17630056  .00000009  00000+0 -92557-5 0  9994
2 51643  87.9152  26.4874 0001767  77.9149 282.2180 13.17648824199963
ONEWEB-0452             
1 51644U 22012Y   26064.17461830 -.00000013  00000+0 -67706-4 0  9990
2 51644  87.9141  26.5346 0001568  79.3095 280.8213 13.17648469199979
ONEWEB-0456             
1 51646U 22012AA  26063.50449534  .00000694  00000+0  19519-2 0  9995
2 51646  87.8783  57.0852 0001825  92.8611 267.2725 13.10372434195638
ONEWEB-0457             
1 51647U 22012AB  26063.93938482 -.00000337  00000+0 -10026-2 0  9998
2 51647  87.8768  57.0319 0002087  76.8959 283.2401 13.10378575195695
ONEWEB-0458             
1 51648U 22012AC  26063.50284190  .00000623  00000+0  17492-2 0  9992
2 51648  87.8771  57.0993 0001713  84.3311 275.8012 13.10373936195599
ONEWEB-0461             
1 51649U 22012AD  26064.12060270  .00000158  00000+0  37431-3 0  9992
2 51649  87.9158  26.5131 0002028  78.5537 281.5822 13.17649995200183
ONEWEB-0463             
1 51650U 22012AE  26064.17799079  .00000034  00000+0  54968-4 0  9993
2 51650  87.9141  26.5350 0001992  79.7120 280.4236 13.17648643199970
ONEWEB-0464             
1 51651U 22012AF  26063.72858624  .00000571  00000+0  16007-2 0  9992
2 51651  87.8766  57.0831 0001751  94.4031 265.7296 13.10375256195646
ONEWEB-0468             
1 51652U 22012AG  26063.73522445  .00000674  00000+0  18931-2 0  9995
2 51652  87.8765  57.0762 0001665  96.9092 263.2225 13.10372135195623
ONEWEB-0473             
1 51653U 22012AH  26063.49120575  .00000305  00000+0  83723-3 0  9990
2 51653  87.8766  57.1263 0001706  86.5366 273.5956 13.10376989195599
ONEWEB-0474             
1 51654U 22012AJ  26063.94104660 -.00000248  00000+0 -74715-3 0  9997
2 51654  87.8777  57.0118 0001671  95.2636 264.8682 13.10375876195647
ONEWEB-0475             
1 51655U 22012AK  26064.18980241 -.00000081  00000+0 -24199-3 0  9998
2 51655  87.9144  26.5243 0001258  94.6143 265.5132 13.17647666199990
ONEWEB-0490             
1 54113U 22138A   26064.11394029  .00000087  00000+0  18393-3 0  9998
2 54113  87.9244 325.6960 0001688  86.9837 273.1489 13.19726109163109
ONEWEB-0492             
1 54114U 22138B   26064.13921280  .00000079  00000+0  16543-3 0  9992
2 54114  87.9237 325.6994 0001823  85.6199 274.5142 13.19726234163118
