[{"OBJECT_NAME":"ONEWEB-0446","OBJECT_ID":"2022-012U","EPOCH":"2026-03-04T22:37:29.629056","MEAN_MOTION":13.1037663,"ECCENTRICITY":0.0001975,"INCLINATION":87.877,"RA_OF_ASC_NODE":57.0434,"ARG_OF_PERICENTER":84.9052,"MEAN_ANOMALY":275.23,"EPHEMERIS_TYPE":0,"CLASSIFICATION_TYPE":"U","NORAD_CAT_ID":51640,"ELEMENT_SET_NO":999,"REV_AT_EPOCH":19567,"BSTAR":-0.00059925,"MEAN_MOTION_DOT":-1.97e-6,"MEAN_MOTION_DDOT":0},{"OBJECT_NAME":"ONEWEB-0448","OBJECT_ID":"2022-012V","EPOCH":"2026-03-04T17:14:48.773184","MEAN_MOTION":13.10376609,"ECCENTRICITY":0.0001795,"INCLINATION":87.8769,"RA_OF_ASC_NODE":57.0864,"ARG_OF_PERICENTER":87.998,"MEAN_ANOMALY":272.1353,"EPHEMERIS_TYPE":0,"CLASSIFICATION_TYPE":"U","NORAD_CAT_ID":51641,"ELEMENT_SET_NO":999,"REV_AT_EPOCH":19561,"BSTAR":0.00025337,"MEAN_MOTION_DOT":1.01e-6,"MEAN_MOTION_DDOT":0},{"OBJECT_NAME":"ONEWEB-0449","OBJECT_ID":"2022-012W","EPOCH":"2026-03-05T04:21:42.934752","MEAN_MOTION":13.10376186,"ECCENTRICITY":0.0001566,"INCLINATION":87.8776,"RA_OF_ASC_NODE":56.9718,"ARG_OF_PERICENTER":73.5789,"MEAN_ANOMALY":286.5511,"EPHEMERIS_TYPE":0,"CLASSIFICATION_TYPE":"U","NORAD_CAT_ID":51642,"ELEMENT_SET_NO":999,"REV_AT_EPOCH":19568,"BSTAR":0.00078597,"MEAN_MOTION_DOT":2.87e-6,"MEAN_MOTION_DDOT":0},{"OBJECT_NAME":"ONEWEB-0451","OBJECT_ID":"2022-012X","EPOCH":"2026-03-05T04:13:52.368384","MEAN_MOTION":13.17648824,"ECCENTRICITY":0.0001767,"INCLINATION":87.9152,"RA_OF_ASC_NODE":26.4874,"ARG_OF_PERICENTER":77.9149,"MEAN_ANOMALY":282.218,"EPHEMERIS_TYPE":0,"CLASSIFICATION_TYPE":"U","NORAD_CAT_ID":51643,"ELEMENT_SET_NO":999,"REV_AT_EPOCH":19996,"BSTAR":-9.2557e-6,"MEAN_MOTION_DOT":9.0e-8,"MEAN_MOTION_DDOT":0},{"OBJECT_NAME":"ONEWEB-0452","OBJECT_ID":"2022-012Y","EPOCH":"2026-03-05T04:11:27.021120","MEAN_MOTION":13.17648469,"ECCENTRICITY":0.0001568,"INCLINATION":87.9141,"RA_OF_ASC_NODE":26.5346,"ARG_OF_PERICENTER":79.3095,"MEAN_ANOMALY":280.8213,"EPHEMERIS_TYPE":0,"CLASSIFICATION_TYPE":"U","NORAD_CAT_ID":51644,"ELEMENT_SET_NO":999,"REV_AT_EPOCH":19997,"BSTAR":-6.7706e-5,"MEAN_MOTION_DOT":-1.3e-7,"MEAN_MOTION_DDOT":0},{"OBJECT_NAME":"ONEWEB-0456","OBJECT_ID":"2022-012AA","EPOCH":"2026-03-04T12:06:28.397376","MEAN_MOTION":13.10372434,"ECCENTRICITY":0.0001825,"INCLINATION":87.8783,"RA_OF_ASC_NODE":57.0852,"ARG_OF_PERICENTER":92.8611,"MEAN_ANOMALY":267.2725,"EPHEMERIS_TYPE":0,"CLASSIFICATION_TYPE":"U","NORAD_CAT_ID":51646,"ELEMENT_SET_NO":999,"REV_AT_EPOCH":19563,"BSTAR":0.0019519,"MEAN_MOTION_DOT":6.94e-6,"MEAN_MOTION_DDOT":0},{"OBJECT_NAME":"ONEWEB-0457","OBJECT_ID":"2022-012AB","EPOCH":"2026-03-04T22:32:42.848448","MEAN_MOTION":13.10378575,"ECCENTRICITY":0.0002087,"INCLINATION":87.8768,"RA_OF_ASC_NODE":57.0319,"ARG_OF_PERICENTER":76.8959,"MEAN_ANOMALY":283.2401,"EPHEMERIS_TYPE":0,"CLASSIFICATION_TYPE":"U","NORAD_CAT_ID":51647,"ELEMENT_SET_NO":999,"REV_AT_EPOCH":19569,"BSTAR":-0.0010026,"MEAN_MOTION_DOT":-3.37e-6,"MEAN_MOTION_DDOT":0},{"OBJECT_NAME":"ONEWEB-0458","OBJECT_ID":"2022-012AC","EPOCH":"2026-03-04T12:04:05.540160","MEAN_MOTION":13.10373936,"ECCENTRICITY":0.0001713,"INCLINATION":87.8771,"RA_OF_ASC_NODE":57.0993,"ARG_OF_PERICENTER":84.3311,"MEAN_ANOMALY":275.8012,"EPHEMERIS_TYPE":0,"CLASSIFICATION_TYPE":"U","NORAD_CAT_ID":51648,"ELEMENT_SET_NO":999,"REV_AT_EPOCH":19559,"BSTAR":0.0017492,"MEAN_MOTION_DOT":6.23e-6,"MEAN_MOTION_DDOT":0},{"OBJECT_NAME":"ONEWEB-0461","OBJECT_ID":"2022-012AD","EPOCH":"2026-03-05T02:53:40.073280","MEAN_MOTION":13.17649995,"ECCENTRICITY":0.0002028,"INCLINATION":87.9158,"RA_OF_ASC_NODE":26.5131,"ARG_OF_PERICENTER":78.5537,"MEAN_ANOMALY":281.5822,"EPHEMERIS_TYPE":0,"CLASSIFICATION_TYPE":"U","NORAD_CAT_ID":51649,"ELEMENT_SET_NO":999,"REV_AT_EPOCH":20018,"BSTAR":0.00037431,"MEAN_MOTION_DOT":1.58e-6,"MEAN_MOTION_DDOT":0},{"OBJECT_NAME":"ONEWEB-0463","OBJECT_ID":"2022-012AE","EPOCH":"2026-03-05T04:16:18.404256","MEAN_MOTION":13.17648643,"ECCENTRICITY":0.0001992,"INCLINATION":87.9141,"RA_OF_ASC_NODE":26.535,"ARG_OF_PERICENTER":79.712,"MEAN_ANOMALY":280.4236,"EPHEMERIS_TYPE":0,"CLASSIFICATION_TYPE":"U","NORAD_CAT_ID":51650,"ELEMENT_SET_NO":999,"REV_AT_EPOCH":19997,"BSTAR":5.4968e-5,"MEAN_MOTION_DOT":3.4e-7,"MEAN_MOTION_DDOT":0},{"OBJECT_NAME":"ONEWEB-0464","OBJECT_ID":"2022-012AF","EPOCH":"2026-03-04T17:29:09.851136","MEAN_MOTION":13.10375256,"ECCENTRICITY":0.0001751,"INCLINATION":87.8766,"RA_OF_ASC_NODE":57.0831,"ARG_OF_PERICENTER":94.4031,"MEAN_ANOMALY":265.7296,"EPHEMERIS_TYPE":0,"CLASSIFICATION_TYPE":"U","NORAD_CAT_ID":51651,"ELEMENT_SET_NO":999,"REV_AT_EPOCH":19564,"BSTAR":0.0016007,"MEAN_MOTION_DOT":5.71e-6,"MEAN_MOTION_DDOT":0},{"OBJECT_NAME":"ONEWEB-0468","OBJECT_ID":"2022-012AG","EPOCH":"2026-03-04T17:38:43.392480","MEAN_MOTION":13.10372135,"ECCENTRICITY":0.0001665,"INCLINATION":87.8765,"RA_OF_ASC_NODE":57.0762,"ARG_OF_PERICENTER":96.9092,"MEAN_ANOMALY":263.2225,"EPHEMERIS_TYPE":0,"CLASSIFICATION_TYPE":"U","NORAD_CAT_ID":51652,"ELEMENT_SET_NO":999,"REV_AT_EPOCH":19562,"BSTAR":0.0018931,"MEAN_MOTION_DOT":6.74e-6,"MEAN_MOTION_DDOT":0},{"OBJECT_NAME":"ONEWEB-0473","OBJECT_ID":"2022-012AH","EPOCH":"2026-03-04T11:47:20.176800","MEAN_MOTION":13.10376989,"ECCENTRICITY":0.00017063,"INCLINATION":87.8766,"RA_OF_ASC_NODE":57.1263,"ARG_OF_PERICENTER":86.5366,"MEAN_ANOMALY":273.5956,"EPHEMERIS_TYPE":0,"CLASSIFICATION_TYPE":"U","NORAD_CAT_ID":51653,"ELEMENT_SET_NO":999,"REV_AT_EPOCH":19559,"BSTAR":0.00083723232,"MEAN_MOTION_DOT":3.05e-6,"MEAN_MOTION_DDOT":0},{"OBJECT_NAME":"ONEWEB-0474","OBJECT_ID":"2022-012AJ","EPOCH":"2026-03-04T22:35:06.426240","MEAN_MOTION":13.10375876,"ECCENTRICITY":0.0001671,"INCLINATION":87.8777,"RA_OF_ASC_NODE":57.0118,"ARG_OF_PERICENTER":95.2636,"MEAN_ANOMALY":264.8682,"EPHEMERIS_TYPE":0,"CLASSIFICATION_TYPE":"U","NORAD_CAT_ID":51654,"ELEMENT_SET_NO":999,"REV_AT_EPOCH":19564,"BSTAR":-0.00074715,"MEAN_MOTION_DOT":-2.48e-6,"MEAN_MOTION_DDOT":0},{"OBJECT_NAME":"ONEWEB-0475","OBJECT_ID":"2022-012AK","EPOCH":"2026-03-05T04:33:18.928224","MEAN_MOTION":13.17647666,"ECCENTRICITY":0.0001258,"INCLINATION":87.9144,"RA_OF_ASC_NODE":26.5243,"ARG_OF_PERICENTER":94.6143,"MEAN_ANOMALY":265.5132,"EPHEMERIS_TYPE":0,"CLASSIFICATION_TYPE":"U","NORAD_CAT_ID":51655,"ELEMENT_SET_NO":999,"REV_AT_EPOCH":19999,"BSTAR":-0.00024199,"MEAN_MOTION_DOT":-8.1e-7,"MEAN_MOTION_DDOT":0},{"OBJECT_NAME":"ONEWEB-0490","OBJECT_ID":"2022-138A","EPOCH":"2026-03-05T02:44:04.441056","MEAN_MOTION":13.19726109,"ECCENTRICITY":0.0001688,"INCLINATION":87.9244,"RA_OF_ASC_NODE":325.696,"ARG_OF_PERICENTER":86.9837,"MEAN_ANOMALY":273.1489,"EPHEMERIS_TYPE":0,"CLASSIFICATION_TYPE":"U","NORAD_CAT_ID":54113,"ELEMENT_SET_NO":999,"REV_AT_EPOCH":16310,"BSTAR":0.00018393,"MEAN_MOTION_DOT":8.7e-7,"MEAN_MOTION_DDOT":0},{"OBJECT_NAME":"ONEWEB-0492","OBJECT_ID":"2022-138B","EPOCH":"2026-03-05T03:20:27.985920","MEAN_MOTION":13.19726234,"ECCENTRICITY":0.0001823,"INCLINATION":87.9237,"RA_OF_ASC_NODE":325.6994,"ARG_OF_PERICENTER":85.6199,"MEAN_ANOMALY":274.5142,"EPHEMERIS_TYPE":0,"CLASSIFICATION_TYPE":"U","NORAD_CAT_ID":54114,"ELEMENT_SET_NO":999,"REV_AT_EPOCH":16311,"BSTAR":0.00016543,"MEAN_MOTION_DOT":7.9e-7,"MEAN_MOTION_DDOT":0}]
